{
    "links": {
        "self": "http://www.neowsapp.com/rest/v1/neo/3406892?api_key=iIulBulltgU6a56xZRHN4H3l9WmuAYTsLGpBGhQ2"
    },
    "id": "3406892",
    "neo_reference_id": "3406892",
    "name": "(2008 FB)",
    "designation": "2008 FB",
    "nasa_jpl_url": "http://ssd.jpl.nasa.gov/sbdb.cgi?sstr=3406892",
    "absolute_magnitude_h": 23.3,
    "estimated_diameter": {
        "kilometers": {
            "estimated_diameter_min": 0.058150704,
            "estimated_diameter_max": 0.130028927
        },
        "meters": {
            "estimated_diameter_min": 58.1507039646,
            "estimated_diameter_max": 130.0289270043
        },
        "miles": {
            "estimated_diameter_min": 0.0361331611,
            "estimated_diameter_max": 0.0807962044
        },
        "feet": {
            "estimated_diameter_min": 190.7831555951,
            "estimated_diameter_max": 426.6041048727
        }
    },
    "is_potentially_hazardous_asteroid": false,
    "close_approach_data": [
        {
            "close_approach_date": "2008-03-23",
            "close_approach_date_full": "2008-Mar-23 07:29",
            "epoch_date_close_approach": 1206257340000,
            "relative_velocity": {
                "kilometers_per_second": "12.7557384625",
                "kilometers_per_hour": "45920.6584649251",
                "miles_per_hour": "28533.3113667197"
            },
            "miss_distance": {
                "astronomical": "0.0657261395",
                "lunar": "25.5674682655",
                "kilometers": "9832490.472522865",
                "miles": "6109626.272490937"
            },
            "orbiting_body": "Earth"
        },
        {
            "close_approach_date": "2177-03-20",
            "close_approach_date_full": "2177-Mar-20 10:59",
            "epoch_date_close_approach": 6539137140000,
            "relative_velocity": {
                "kilometers_per_second": "13.253931434",
                "kilometers_per_hour": "47714.1531624238",
                "miles_per_hour": "29647.7192247294"
            },
            "miss_distance": {
                "astronomical": "0.0638542852",
                "lunar": "24.8393169428",
                "kilometers": "9552465.056292524",
                "miles": "5935626.5473198712"
            },
            "orbiting_body": "Earth"
        },
        {
            "close_approach_date": "2188-04-28",
            "close_approach_date_full": "2188-Apr-28 16:15",
            "epoch_date_close_approach": 6889680900000,
            "relative_velocity": {
                "kilometers_per_second": "16.5208630025",
                "kilometers_per_hour": "59475.1068089251",
                "miles_per_hour": "36955.5184502457"
            },
            "miss_distance": {
                "astronomical": "0.4215603352",
                "lunar": "163.9869703928",
                "kilometers": "63064528.222406024",
                "miles": "39186480.7361461712"
            },
            "orbiting_body": "Earth"
        }
    ],
    "orbital_data": {
        "orbit_id": "10",
        "orbit_determination_date": "2017-04-06 09:03:57",
        "first_observation_date": "2008-03-23",
        "last_observation_date": "2008-05-04",
        "data_arc_in_days": 42,
        "observations_used": 38,
        "orbit_uncertainty": "7",
        "minimum_orbit_intersection": ".0574579",
        "jupiter_tisserand_invariant": "3.657",
        "epoch_osculation": "2459000.5",
        "eccentricity": ".4702427436942573",
        "semi_major_axis": "1.971415267295918",
        "inclination": "20.45589121730165",
        "ascending_node_longitude": "178.5387871395909",
        "orbital_period": "1011.033626356661",
        "perihelion_distance": "1.044371543041938",
        "perihelion_argument": "14.57187652806465",
        "aphelion_distance": "2.898458991549898",
        "perihelion_time": "2458603.737706374172",
        "mean_anomaly": "141.2756430466245",
        "mean_motion": ".3560712429489494",
        "equinox": "J2000",
        "orbit_class": {
            "orbit_class_type": "AMO",
            "orbit_class_description": "Near-Earth asteroid orbits similar to that of 1221 Amor",
            "orbit_class_range": "1.017 AU < q (perihelion) < 1.3 AU"
        }
    },
    "is_sentry_object": false
}